{
  "type": "FeatureCollection",
  "features": [
    {
      "type": "Feature",
      "properties": {
        "norad_id": 31527,
        "name": "FENGYUN 1C DEB",
        "group": "fengyun-1c-debris",
        "lat": -70.65797011365336,
        "lon": -171.74365599925576,
        "alt_km": 848.6099321311222,
        "timestamp": "2025-12-23T18:59:32.249843+00:00",
        "meta_object_name": "FENGYUN 1C DEB",
        "meta_object_id": "1999-025BXS",
        "meta_epoch": "2025-12-22T10:40:48.323136",
        "meta_mean_motion": 13.23411425,
        "meta_eccentricity": 0.04495211,
        "meta_inclination": 98.8916,
        "meta_ra_of_asc_node": 160.6201,
        "meta_arg_of_pericenter": 276.6803,
        "meta_mean_anomaly": 78.3367,
        "meta_ephemeris_type": 0,
        "meta_classification_type": "U",
        "meta_norad_cat_id": 31527,
        "meta_element_set_no": 999,
        "meta_rev_at_epoch": 90318,
        "meta_bstar": 0.00065377529,
        "meta_mean_motion_dot": 4.35e-06,
        "meta_mean_motion_ddot": 0,
        "tle_line1": "1 31527U 99025BXS 25356.44500374  .00000435  00000+0  65378-3 0  9994",
        "tle_line2": "2 31527  98.8916 160.6201 0449521 276.6803  78.3367 13.23411425903185"
      },
      "geometry": {
        "type": "Point",
        "coordinates": [
          -171.74365599925576,
          -70.65797011365336
        ]
      }
    },
    {
      "type": "Feature",
      "properties": {
        "norad_id": 31531,
        "name": "FENGYUN 1C DEB",
        "group": "fengyun-1c-debris",
        "lat": -22.913761138123544,
        "lon": 45.84150360198725,
        "alt_km": 808.3104693260002,
        "timestamp": "2025-12-23T18:59:32.249852+00:00",
        "meta_object_name": "FENGYUN 1C DEB",
        "meta_object_id": "1999-025BXW",
        "meta_epoch": "2025-12-15T20:25:10.111008",
        "meta_mean_motion": 14.35669626,
        "meta_eccentricity": 0.02439564,
        "meta_inclination": 98.3829,
        "meta_ra_of_asc_node": 34.5409,
        "meta_arg_of_pericenter": 259.2903,
        "meta_mean_anomaly": 98.0732,
        "meta_ephemeris_type": 0,
        "meta_classification_type": "U",
        "meta_norad_cat_id": 31531,
        "meta_element_set_no": 999,
        "meta_rev_at_epoch": 63979,
        "meta_bstar": 0.00065093757,
        "meta_mean_motion_dot": 2.583e-05,
        "meta_mean_motion_ddot": 0,
        "tle_line1": "1 31531U 99025BXW 25349.85081147  .00002583  00000+0  65094-3 0  9999",
        "tle_line2": "2 31531  98.3829  34.5409 0243956 259.2903  98.0732 14.35669626639799"
      },
      "geometry": {
        "type": "Point",
        "coordinates": [
          45.84150360198725,
          -22.913761138123544
        ]
      }
    },
    {
      "type": "Feature",
      "properties": {
        "norad_id": 31533,
        "name": "FENGYUN 1C DEB",
        "group": "fengyun-1c-debris",
        "lat": -0.4581409352462255,
        "lon": 70.14832016274838,
        "alt_km": 836.7619221293271,
        "timestamp": "2025-12-23T18:59:32.249860+00:00",
        "meta_object_name": "FENGYUN 1C DEB",
        "meta_object_id": "1999-025BXY",
        "meta_epoch": "2025-12-22T11:52:08.553216",
        "meta_mean_motion": 14.27646765,
        "meta_eccentricity": 0.0065133,
        "meta_inclination": 98.9605,
        "meta_ra_of_asc_node": 248.8914,
        "meta_arg_of_pericenter": 321.3322,
        "meta_mean_anomaly": 38.3204,
        "meta_ephemeris_type": 0,
        "meta_classification_type": "U",
        "meta_norad_cat_id": 31533,
        "meta_element_set_no": 999,
        "meta_rev_at_epoch": 66262,
        "meta_bstar": 0.00037216434,
        "meta_mean_motion_dot": 8.91e-06,
        "meta_mean_motion_ddot": 0,
        "tle_line1": "1 31533U 99025BXY 25356.49454344  .00000891  00000+0  37216-3 0  9997",
        "tle_line2": "2 31533  98.9605 248.8914 0065133 321.3322  38.3204 14.27646765662624"
      },
      "geometry": {
        "type": "Point",
        "coordinates": [
          70.14832016274838,
          -0.4581409352462255
        ]
      }
    },
    {
      "type": "Feature",
      "properties": {
        "norad_id": 31535,
        "name": "FENGYUN 1C DEB",
        "group": "fengyun-1c-debris",
        "lat": -6.614616931321854,
        "lon": 25.905268581968958,
        "alt_km": 765.7280879393838,
        "timestamp": "2025-12-23T18:59:32.249869+00:00",
        "meta_object_name": "FENGYUN 1C DEB",
        "meta_object_id": "1999-025BYA",
        "meta_epoch": "2025-12-08T20:01:31.264032",
        "meta_mean_motion": 14.28309987,
        "meta_eccentricity": 0.00876599,
        "meta_inclination": 98.0348,
        "meta_ra_of_asc_node": 193.0693,
        "meta_arg_of_pericenter": 174.5726,
        "meta_mean_anomaly": 185.6428,
        "meta_ephemeris_type": 0,
        "meta_classification_type": "U",
        "meta_norad_cat_id": 31535,
        "meta_element_set_no": 999,
        "meta_rev_at_epoch": 71875,
        "meta_bstar": 0.0012494375,
        "meta_mean_motion_dot": 3.212e-05,
        "meta_mean_motion_ddot": 0,
        "tle_line1": "1 31535U 99025BYA 25342.83438963  .00003212  00000+0  12494-2 0  9991",
        "tle_line2": "2 31535  98.0348 193.0693 0087659 174.5726 185.6428 14.28309987718752"
      },
      "geometry": {
        "type": "Point",
        "coordinates": [
          25.905268581968958,
          -6.614616931321854
        ]
      }
    },
    {
      "type": "Feature",
      "properties": {
        "norad_id": 31536,
        "name": "FENGYUN 1C DEB",
        "group": "fengyun-1c-debris",
        "lat": -15.802507757199288,
        "lon": -92.63667780545906,
        "alt_km": 836.1006770603226,
        "timestamp": "2025-12-23T18:59:32.249878+00:00",
        "meta_object_name": "FENGYUN 1C DEB",
        "meta_object_id": "1999-025BYB",
        "meta_epoch": "2025-12-22T16:38:59.021952",
        "meta_mean_motion": 14.54434146,
        "meta_eccentricity": 0.02945648,
        "meta_inclination": 98.2371,
        "meta_ra_of_asc_node": 263.9312,
        "meta_arg_of_pericenter": 114.0299,
        "meta_mean_anomaly": 249.2024,
        "meta_ephemeris_type": 0,
        "meta_classification_type": "U",
        "meta_norad_cat_id": 31536,
        "meta_element_set_no": 999,
        "meta_rev_at_epoch": 96402,
        "meta_bstar": 0.00085666971,
        "meta_mean_motion_dot": 6.488e-05,
        "meta_mean_motion_ddot": 0,
        "tle_line1": "1 31536U 99025BYB 25356.69373868  .00006488  00000+0  85667-3 0  9994",
        "tle_line2": "2 31536  98.2371 263.9312 0294564 114.0299 249.2024 14.54434146964022"
      },
      "geometry": {
        "type": "Point",
        "coordinates": [
          -92.63667780545906,
          -15.802507757199288
        ]
      }
    },
    {
      "type": "Feature",
      "properties": {
        "norad_id": 31537,
        "name": "FENGYUN 1C DEB",
        "group": "fengyun-1c-debris",
        "lat": 80.69846238139664,
        "lon": 62.818994389313815,
        "alt_km": 1045.6344362016116,
        "timestamp": "2025-12-23T18:59:32.249888+00:00",
        "meta_object_name": "FENGYUN 1C DEB",
        "meta_object_id": "1999-025BYC",
        "meta_epoch": "2025-12-22T15:30:50.364864",
        "meta_mean_motion": 14.20468164,
        "meta_eccentricity": 0.03487105,
        "meta_inclination": 99.2934,
        "meta_ra_of_asc_node": 150.3269,
        "meta_arg_of_pericenter": 296.2481,
        "meta_mean_anomaly": 60.3246,
        "meta_ephemeris_type": 0,
        "meta_classification_type": "U",
        "meta_norad_cat_id": 31537,
        "meta_element_set_no": 999,
        "meta_rev_at_epoch": 93422,
        "meta_bstar": 0.0026080635,
        "meta_mean_motion_dot": 0.00010318,
        "meta_mean_motion_ddot": 0,
        "tle_line1": "1 31537U 99025BYC 25356.64641626  .00010318  00000+0  26081-2 0  9991",
        "tle_line2": "2 31537  99.2934 150.3269 0348710 296.2481  60.3246 14.20468164934225"
      },
      "geometry": {
        "type": "Point",
        "coordinates": [
          62.818994389313815,
          80.69846238139664
        ]
      }
    },
    {
      "type": "Feature",
      "properties": {
        "norad_id": 31540,
        "name": "FENGYUN 1C DEB",
        "group": "fengyun-1c-debris",
        "lat": 64.7247308207425,
        "lon": 138.603046796258,
        "alt_km": 785.3118434549806,
        "timestamp": "2025-12-23T18:59:32.249899+00:00",
        "meta_object_name": "FENGYUN 1C DEB",
        "meta_object_id": "1999-025BYF",
        "meta_epoch": "2025-12-22T16:28:01.184448",
        "meta_mean_motion": 14.65491949,
        "meta_eccentricity": 0.01765622,
        "meta_inclination": 99.0576,
        "meta_ra_of_asc_node": 157.1311,
        "meta_arg_of_pericenter": 270.4591,
        "meta_mean_anomaly": 87.638,
        "meta_ephemeris_type": 0,
        "meta_classification_type": "U",
        "meta_norad_cat_id": 31540,
        "meta_element_set_no": 999,
        "meta_rev_at_epoch": 98447,
        "meta_bstar": 0.00095426634,
        "meta_mean_motion_dot": 6.446e-05,
        "meta_mean_motion_ddot": 0,
        "tle_line1": "1 31540U 99025BYF 25356.68612482  .00006446  00000+0  95427-3 0  9995",
        "tle_line2": "2 31540  99.0576 157.1311 0176562 270.4591  87.6380 14.65491949984471"
      },
      "geometry": {
        "type": "Point",
        "coordinates": [
          138.603046796258,
          64.7247308207425
        ]
      }
    }
  ]
}